CCSDS_OMM_VERS = 2.0
CREATION_DATE  = 
ORIGINATOR     = 

OBJECT_NAME    = ERS-1
OBJECT_ID      = 1991-050A
CENTER_NAME    = EARTH
REF_FRAME      = TEME
TIME_SYSTEM    = UTC
MEAN_ELEMENT_THEORY = SGP/SGP4

EPOCH          = 2026-03-18T10:56:12.727104
MEAN_MOTION    = 14.39455963
ECCENTRICITY   = .00321106
INCLINATION    = 98.7875
RA_OF_ASC_NODE = 95.9105
ARG_OF_PERICENTER = 174.3421
MEAN_ANOMALY   = 185.8135

EPHEMERIS_TYPE = 0
CLASSIFICATION_TYPE = U
NORAD_CAT_ID   = 21574
ELEMENT_SET_NO = 999
REV_AT_EPOCH   = 81699
BSTAR          = .10177292E-3
MEAN_MOTION_DOT = .272E-5
MEAN_MOTION_DDOT = 0

CCSDS_OMM_VERS = 2.0
CREATION_DATE  = 
ORIGINATOR     = 

OBJECT_NAME    = ARIANE 40 R/B
OBJECT_ID      = 1991-050F
CENTER_NAME    = EARTH
REF_FRAME      = TEME
TIME_SYSTEM    = UTC
MEAN_ELEMENT_THEORY = SGP/SGP4

EPOCH          = 2026-03-18T13:19:24.476160
MEAN_MOTION    = 14.42900043
ECCENTRICITY   = .00040816
INCLINATION    = 98.1993
RA_OF_ASC_NODE = 129.4582
ARG_OF_PERICENTER = 61.8985
MEAN_ANOMALY   = 298.2618

EPHEMERIS_TYPE = 0
CLASSIFICATION_TYPE = U
NORAD_CAT_ID   = 21610
ELEMENT_SET_NO = 999
REV_AT_EPOCH   = 82027
BSTAR          = .93338144E-4
MEAN_MOTION_DOT = .27E-5
MEAN_MOTION_DDOT = 0

CCSDS_OMM_VERS = 2.0
CREATION_DATE  = 
ORIGINATOR     = 

OBJECT_NAME    = INTERCOSMOS 25
OBJECT_ID      = 1991-086A
CENTER_NAME    = EARTH
REF_FRAME      = TEME
TIME_SYSTEM    = UTC
MEAN_ELEMENT_THEORY = SGP/SGP4

EPOCH          = 2026-03-18T13:45:22.885920
MEAN_MOTION    = 12.12031562
ECCENTRICITY   = .14868213
INCLINATION    = 82.6037
RA_OF_ASC_NODE = 304.6392
ARG_OF_PERICENTER = 97.7940
MEAN_ANOMALY   = 279.3933

EPHEMERIS_TYPE = 0
CLASSIFICATION_TYPE = U
NORAD_CAT_ID   = 21819
ELEMENT_SET_NO = 999
REV_AT_EPOCH   = 49776
BSTAR          = .31464693E-3
MEAN_MOTION_DOT = .1643E-4
MEAN_MOTION_DDOT = 0

CCSDS_OMM_VERS = 2.0
CREATION_DATE  = 
ORIGINATOR     = 

OBJECT_NAME    = SL-8 R/B
OBJECT_ID      = 1992-008B
CENTER_NAME    = EARTH
REF_FRAME      = TEME
TIME_SYSTEM    = UTC
MEAN_ELEMENT_THEORY = SGP/SGP4

EPOCH          = 2026-03-18T10:30:11.562912
MEAN_MOTION    = 13.75969674
ECCENTRICITY   = .00358371
INCLINATION    = 82.9222
RA_OF_ASC_NODE = 261.2688
ARG_OF_PERICENTER = 109.6413
MEAN_ANOMALY   = 260.9083

EPHEMERIS_TYPE = 0
CLASSIFICATION_TYPE = U
NORAD_CAT_ID   = 21876
ELEMENT_SET_NO = 999
REV_AT_EPOCH   = 71062
BSTAR          = -.1026047E-4
MEAN_MOTION_DOT = .6E-7
MEAN_MOTION_DDOT = 0

CCSDS_OMM_VERS = 2.0
CREATION_DATE  = 
ORIGINATOR     = 

OBJECT_NAME    = SL-8 R/B
OBJECT_ID      = 1992-020B
CENTER_NAME    = EARTH
REF_FRAME      = TEME
TIME_SYSTEM    = UTC
MEAN_ELEMENT_THEORY = SGP/SGP4

EPOCH          = 2026-03-18T15:47:29.732064
MEAN_MOTION    = 13.75550187
ECCENTRICITY   = .00275381
INCLINATION    = 82.9322
RA_OF_ASC_NODE = 147.1035
ARG_OF_PERICENTER = 272.5724
MEAN_ANOMALY   = 241.7803

EPHEMERIS_TYPE = 0
CLASSIFICATION_TYPE = U
NORAD_CAT_ID   = 21938
ELEMENT_SET_NO = 999
REV_AT_EPOCH   = 70236
BSTAR          = .49860487E-4
MEAN_MOTION_DOT = .63E-6
MEAN_MOTION_DDOT = 0

CCSDS_OMM_VERS = 2.0
CREATION_DATE  = 
ORIGINATOR     = 

OBJECT_NAME    = USA 81
OBJECT_ID      = 1992-023A
CENTER_NAME    = EARTH
REF_FRAME      = TEME
TIME_SYSTEM    = UTC
MEAN_ELEMENT_THEORY = SGP/SGP4

EPOCH          = 2026-03-18T14:24:50.504256
MEAN_MOTION    = 14.32370847
ECCENTRICITY   = .00022132
INCLINATION    = 85.0067
RA_OF_ASC_NODE = 126.2998
ARG_OF_PERICENTER = 71.1469
MEAN_ANOMALY   = 288.9963

EPHEMERIS_TYPE = 0
CLASSIFICATION_TYPE = U
NORAD_CAT_ID   = 21949
ELEMENT_SET_NO = 999
REV_AT_EPOCH   = 9606
BSTAR          = .56496716E-4
MEAN_MOTION_DOT = .173E-5
MEAN_MOTION_DDOT = 0

CCSDS_OMM_VERS = 2.0
CREATION_DATE  = 
ORIGINATOR     = 

OBJECT_NAME    = COSMOS 2219
OBJECT_ID      = 1992-076A
CENTER_NAME    = EARTH
REF_FRAME      = TEME
TIME_SYSTEM    = UTC
MEAN_ELEMENT_THEORY = SGP/SGP4

EPOCH          = 2026-03-18T12:06:48.247776
MEAN_MOTION    = 14.14093459
ECCENTRICITY   = .0018462
INCLINATION    = 71.0641
RA_OF_ASC_NODE = 359.6423
ARG_OF_PERICENTER = 194.7645
MEAN_ANOMALY   = 165.2941

EPHEMERIS_TYPE = 0
CLASSIFICATION_TYPE = U
NORAD_CAT_ID   = 22219
ELEMENT_SET_NO = 999
REV_AT_EPOCH   = 71962
BSTAR          = -.34071963E-4
MEAN_MOTION_DOT = -.112E-5
MEAN_MOTION_DDOT = 0

CCSDS_OMM_VERS = 2.0
CREATION_DATE  = 
ORIGINATOR     = 

OBJECT_NAME    = SL-16 R/B
OBJECT_ID      = 1992-076B
CENTER_NAME    = EARTH
REF_FRAME      = TEME
TIME_SYSTEM    = UTC
MEAN_ELEMENT_THEORY = SGP/SGP4

EPOCH          = 2026-03-18T12:16:49.933056
MEAN_MOTION    = 14.16860213
ECCENTRICITY   = .00105946
INCLINATION    = 71.0006
RA_OF_ASC_NODE = 169.7920
ARG_OF_PERICENTER = 80.0756
MEAN_ANOMALY   = 290.8138

EPHEMERIS_TYPE = 0
CLASSIFICATION_TYPE = U
NORAD_CAT_ID   = 22220
ELEMENT_SET_NO = 999
REV_AT_EPOCH   = 72308
BSTAR          = .13761356E-3
MEAN_MOTION_DOT = .228E-5
MEAN_MOTION_DDOT = 0

CCSDS_OMM_VERS = 2.0
CREATION_DATE  = 
ORIGINATOR     = 

OBJECT_NAME    = COSMOS 2221
OBJECT_ID      = 1992-080A
CENTER_NAME    = EARTH
REF_FRAME      = TEME
TIME_SYSTEM    = UTC
MEAN_ELEMENT_THEORY = SGP/SGP4

EPOCH          = 2026-03-18T12:46:05.436768
MEAN_MOTION    = 14.96236025
ECCENTRICITY   = .00147961
INCLINATION    = 82.5002
RA_OF_ASC_NODE = 270.6088
ARG_OF_PERICENTER = 157.8736
MEAN_ANOMALY   = 202.3128

EPHEMERIS_TYPE = 0
CLASSIFICATION_TYPE = U
NORAD_CAT_ID   = 22236
ELEMENT_SET_NO = 999
REV_AT_EPOCH   = 78211
BSTAR          = .16043819E-3
MEAN_MOTION_DOT = .1839E-4
MEAN_MOTION_DDOT = 0

CCSDS_OMM_VERS = 2.0
CREATION_DATE  = 
ORIGINATOR     = 

OBJECT_NAME    = SL-16 R/B
OBJECT_ID      = 1992-093B
CENTER_NAME    = EARTH
REF_FRAME      = TEME
TIME_SYSTEM    = UTC
MEAN_ELEMENT_THEORY = SGP/SGP4

EPOCH          = 2026-03-18T10:21:59.188320
MEAN_MOTION    = 14.15447849
ECCENTRICITY   = .00062824
INCLINATION    = 71.0239
RA_OF_ASC_NODE = 345.9154
ARG_OF_PERICENTER = 284.8808
MEAN_ANOMALY   = 75.1619

EPHEMERIS_TYPE = 0
CLASSIFICATION_TYPE = U
NORAD_CAT_ID   = 22285
ELEMENT_SET_NO = 999
REV_AT_EPOCH   = 71439
BSTAR          = .11279175E-3
MEAN_MOTION_DOT = .173E-5
MEAN_MOTION_DDOT = 0

CCSDS_OMM_VERS = 2.0
CREATION_DATE  = 
ORIGINATOR     = 

OBJECT_NAME    = COSMOS 2228
OBJECT_ID      = 1992-094A
CENTER_NAME    = EARTH
REF_FRAME      = TEME
TIME_SYSTEM    = UTC
MEAN_ELEMENT_THEORY = SGP/SGP4

EPOCH          = 2026-03-18T14:37:24.379680
MEAN_MOTION    = 14.97235942
ECCENTRICITY   = .0016606
INCLINATION    = 82.5169
RA_OF_ASC_NODE = 228.7693
ARG_OF_PERICENTER = 272.2138
MEAN_ANOMALY   = 87.7183

EPHEMERIS_TYPE = 0
CLASSIFICATION_TYPE = U
NORAD_CAT_ID   = 22286
ELEMENT_SET_NO = 999
REV_AT_EPOCH   = 77739
BSTAR          = .19577899E-3
MEAN_MOTION_DOT = .2297E-4
MEAN_MOTION_DDOT = 0

CCSDS_OMM_VERS = 2.0
CREATION_DATE  = 
ORIGINATOR     = 

OBJECT_NAME    = SL-16 R/B
OBJECT_ID      = 1993-016B
CENTER_NAME    = EARTH
REF_FRAME      = TEME
TIME_SYSTEM    = UTC
MEAN_ELEMENT_THEORY = SGP/SGP4

EPOCH          = 2026-03-18T14:44:57.693696
MEAN_MOTION    = 14.15307953
ECCENTRICITY   = .00122832
INCLINATION    = 71.0083
RA_OF_ASC_NODE = 196.4373
ARG_OF_PERICENTER = 302.4996
MEAN_ANOMALY   = 57.4939

EPHEMERIS_TYPE = 0
CLASSIFICATION_TYPE = U
NORAD_CAT_ID   = 22566
ELEMENT_SET_NO = 999
REV_AT_EPOCH   = 70343
BSTAR          = -.1061913E-3
MEAN_MOTION_DOT = -.255E-5
MEAN_MOTION_DDOT = 0

